{"type": "FeatureCollection", "features": [ {"type": "Feature", "properties": {"norad_id": 43437, "name": "SENTINEL-3B", "group": "resource", "lat": -29.700566933371125, "lon": -125.28525329243791, "alt_km": 809.0726640241583, "timestamp": "2025-12-20T14:38:01.616148+00:00", "meta": {"OBJECT_NAME": "SENTINEL-3B", "OBJECT_ID": "2018-039A", "EPOCH": "2025-12-20T01:52:15.630816", "MEAN_MOTION": 14.26736631, "ECCENTRICITY": 0.00016258, "INCLINATION": 98.6258, "RA_OF_ASC_NODE": 59.1578, "ARG_OF_PERICENTER": 94.4485, "MEAN_ANOMALY": 265.6881, "EPHEMERIS_TYPE": 0, "CLASSIFICATION_TYPE": "U", "NORAD_CAT_ID": 43437, "ELEMENT_SET_NO": 999, "REV_AT_EPOCH": 39858, "BSTAR": 5.9718568e-05, "MEAN_MOTION_DOT": 1.01e-06, "MEAN_MOTION_DDOT": 0}, "tle": {"line1": "1 43437U 18039A   25354.07795869  .00000101  00000+0  59719-4 0  9998", "line2": "2 43437  98.6258  59.1578 0001625  94.4485 265.6881 14.26736631398582"}}, "geometry": {"type": "Point", "coordinates": [-125.28525329243791, -29.700566933371125]}}, {"type": "Feature", "properties": {"norad_id": 43461, "name": "GAOFEN-5 01", "group": "resource", "lat": 69.98631344251315, "lon": -66.32225983086403, "alt_km": 685.3187783569983, "timestamp": "2025-12-20T14:38:01.616158+00:00", "meta": {"OBJECT_NAME": "GAOFEN-5 01", "OBJECT_ID": "2018-043A", "EPOCH": "2025-12-20T04:26:24.959040", "MEAN_MOTION": 14.60417213, "ECCENTRICITY": 5.411e-05, "INCLINATION": 98.4336, "RA_OF_ASC_NODE": 317.2825, "ARG_OF_PERICENTER": 293.9801, "MEAN_ANOMALY": 66.1342, "EPHEMERIS_TYPE": 0, "CLASSIFICATION_TYPE": "U", "NORAD_CAT_ID": 43461, "ELEMENT_SET_NO": 999, "REV_AT_EPOCH": 40556, "BSTAR": 7.4171655e-05, "MEAN_MOTION_DOT": 3.1e-06, "MEAN_MOTION_DDOT": 0}, "tle": {"line1": "1 43461U 18043A   25354.18501110  .00000310  00000+0  74172-4 0  9998", "line2": "2 43461  98.4336 317.2825 0000541 293.9801  66.1342 14.60417213405564"}}, "geometry": {"type": "Point", "coordinates": [-66.32225983086403, 69.98631344251315]}}, {"type": "Feature", "properties": {"norad_id": 43484, "name": "GAOFEN-6", "group": "resource", "lat": 15.565197707701474, "lon": -119.19811502861707, "alt_km": 645.9420760892126, "timestamp": "2025-12-20T14:38:01.616168+00:00", "meta": {"OBJECT_NAME": "GAOFEN-6", "OBJECT_ID": "2018-048A", "EPOCH": "2025-12-20T07:23:17.409696", "MEAN_MOTION": 14.76579367, "ECCENTRICITY": 0.00128508, "INCLINATION": 97.8029, "RA_OF_ASC_NODE": 58.3211, "ARG_OF_PERICENTER": 41.3154, "MEAN_ANOMALY": 318.9026, "EPHEMERIS_TYPE": 0, "CLASSIFICATION_TYPE": "U", "NORAD_CAT_ID": 43484, "ELEMENT_SET_NO": 999, "REV_AT_EPOCH": 40699, "BSTAR": 9.3358859e-05, "MEAN_MOTION_DOT": 6.03e-06, "MEAN_MOTION_DDOT": 0}, "tle": {"line1": "1 43484U 18048A   25354.30784039  .00000603  00000+0  93359-4 0  9998", "line2": "2 43484  97.8029  58.3211 0012850  41.3154 318.9026 14.76579367406996"}}, "geometry": {"type": "Point", "coordinates": [-119.19811502861707, 15.565197707701474]}}, {"type": "Feature", "properties": {"norad_id": 43585, "name": "GAOFEN-11 01", "group": "resource", "lat": -48.09350415516213, "lon": -130.56745409285028, "alt_km": 423.3740701112738, "timestamp": "2025-12-20T14:38:01.616178+00:00", "meta": {"OBJECT_NAME": "GAOFEN-11 01", "OBJECT_ID": "2018-063A", "EPOCH": "2025-12-20T05:54:00.993312", "MEAN_MOTION": 15.4942703, "ECCENTRICITY": 0.00039155, "INCLINATION": 97.1558, "RA_OF_ASC_NODE": 57.1189, "ARG_OF_PERICENTER": 274.1376, "MEAN_ANOMALY": 85.9429, "EPHEMERIS_TYPE": 0, "CLASSIFICATION_TYPE": "U", "NORAD_CAT_ID": 43585, "ELEMENT_SET_NO": 999, "REV_AT_EPOCH": 41258, "BSTAR": 0.00030365909, "MEAN_MOTION_DOT": 0.00016604, "MEAN_MOTION_DDOT": 0}, "tle": {"line1": "1 43585U 18063A   25354.24584483  .00016604  00000+0  30366-3 0  9997", "line2": "2 43585  97.1558  57.1189 0003915 274.1376  85.9429 15.49427030412583"}}, "geometry": {"type": "Point", "coordinates": [-130.56745409285028, -48.09350415516213]}}, {"type": "Feature", "properties": {"norad_id": 43613, "name": "ICESAT-2", "group": "resource", "lat": 86.39121500820973, "lon": -150.87829005404566, "alt_km": 472.0049051715341, "timestamp": "2025-12-20T14:38:01.616189+00:00", "meta": {"OBJECT_NAME": "ICESAT-2", "OBJECT_ID": "2018-070A", "EPOCH": "2025-12-20T03:15:13.582368", "MEAN_MOTION": 15.28225301, "ECCENTRICITY": 0.00028009, "INCLINATION": 92.0048, "RA_OF_ASC_NODE": 242.7331, "ARG_OF_PERICENTER": 120.7355, "MEAN_ANOMALY": 239.417, "EPHEMERIS_TYPE": 0, "CLASSIFICATION_TYPE": "U", "NORAD_CAT_ID": 43613, "ELEMENT_SET_NO": 999, "REV_AT_EPOCH": 40511, "BSTAR": 0.00028607395, "MEAN_MOTION_DOT": 7.866e-05, "MEAN_MOTION_DDOT": 0}, "tle": {"line1": "1 43613U 18070A   25354.13557387  .00007866  00000+0  28607-3 0  9993", "line2": "2 43613  92.0048 242.7331 0002800 120.7355 239.4170 15.28225301405113"}}, "geometry": {"type": "Point", "coordinates": [-150.87829005404566, 86.39121500820973]}}, {"type": "Feature", "properties": {"norad_id": 43719, "name": "HYSIS", "group": "resource", "lat": -75.97876062303, "lon": -156.77271282900344, "alt_km": 641.5128351176436, "timestamp": "2025-12-20T14:38:01.616199+00:00", "meta": {"OBJECT_NAME": "HYSIS", "OBJECT_ID": "2018-096A", "EPOCH": "2025-12-20T06:58:19.967232", "MEAN_MOTION": 14.78666294, "ECCENTRICITY": 0.00010376, "INCLINATION": 98.0095, "RA_OF_ASC_NODE": 57.2318, "ARG_OF_PERICENTER": 53.1223, "MEAN_ANOMALY": 307.0082, "EPHEMERIS_TYPE": 0, "CLASSIFICATION_TYPE": "U", "NORAD_CAT_ID": 43719, "ELEMENT_SET_NO": 999, "REV_AT_EPOCH": 38098, "BSTAR": 0.00019097189, "MEAN_MOTION_DOT": 1.348e-05, "MEAN_MOTION_DDOT": 0}, "tle": {"line1": "1 43719U 18096A   25354.29050888  .00001348  00000+0  19097-3 0  9991", "line2": "2 43719  98.0095  57.2318 0001037  53.1223 307.0082 14.78666294380981"}}, "geometry": {"type": "Point", "coordinates": [-156.77271282900344, -75.97876062303]}}, {"type": "Feature", "properties": {"norad_id": 43783, "name": "KAZSTSAT", "group": "resource", "lat": -0.059838197266473506, "lon": 29.46387364764735, "alt_km": 570.1453970543862, "timestamp": "2025-12-20T14:38:01.616209+00:00", "meta": {"OBJECT_NAME": "KAZSTSAT", "OBJECT_ID": "2018-099AB", "EPOCH": "2025-12-20T01:49:14.152800", "MEAN_MOTION": 14.99364143, "ECCENTRICITY": 0.00059799, "INCLINATION": 97.4531, "RA_OF_ASC_NODE": 28.9452, "ARG_OF_PERICENTER": 297.2395, "MEAN_ANOMALY": 62.8219, "EPHEMERIS_TYPE": 0, "CLASSIFICATION_TYPE": "U", "NORAD_CAT_ID": 43783, "ELEMENT_SET_NO": 999, "REV_AT_EPOCH": 38446, "BSTAR": 1.993551e-05, "MEAN_MOTION_DOT": 1.88e-06, "MEAN_MOTION_DDOT": 0}, "tle": {"line1": "1 43783U 18099AB  25354.07585825  .00000188  00000+0  19936-4 0  9999", "line2": "2 43783  97.4531  28.9452 0005979 297.2395  62.8219 14.99364143384460"}}, "geometry": {"type": "Point", "coordinates": [29.46387364764735, -0.059838197266473506]}}, {"type": "Feature", "properties": {"norad_id": 43831, "name": "SAUDISAT 5A", "group": "resource", "lat": 75.94020187773395, "lon": 23.696659108059634, "alt_km": 474.3296309122052, "timestamp": "2025-12-20T14:38:01.616219+00:00", "meta": {"OBJECT_NAME": "SAUDISAT 5A", "OBJECT_ID": "2018-102A", "EPOCH": "2025-12-20T06:25:26.142816", "MEAN_MOTION": 15.25742934, "ECCENTRICITY": 0.00114241, "INCLINATION": 97.3346, "RA_OF_ASC_NODE": 54.3138, "ARG_OF_PERICENTER": 53.0847, "MEAN_ANOMALY": 307.1436, "EPHEMERIS_TYPE": 0, "CLASSIFICATION_TYPE": "U", "NORAD_CAT_ID": 43831, "ELEMENT_SET_NO": 999, "REV_AT_EPOCH": 38837, "BSTAR": 0.00017172783, "MEAN_MOTION_DOT": 4.317e-05, "MEAN_MOTION_DDOT": 0}, "tle": {"line1": "1 43831U 18102A   25354.26766369  .00004317  00000+0  17173-3 0  9991", "line2": "2 43831  97.3346  54.3138 0011424  53.0847 307.1436 15.25742934388371"}}, "geometry": {"type": "Point", "coordinates": [23.696659108059634, 75.94020187773395]}}, {"type": "Feature", "properties": {"norad_id": 43833, "name": "SAUDISAT 5B", "group": "resource", "lat": 39.28148202200856, "lon": -116.54239304060042, "alt_km": 484.02442079213324, "timestamp": "2025-12-20T14:38:01.616229+00:00", "meta": {"OBJECT_NAME": "SAUDISAT 5B", "OBJECT_ID": "2018-102C", "EPOCH": "2025-12-20T06:09:14.853024", "MEAN_MOTION": 15.26091839, "ECCENTRICITY": 0.00121509, "INCLINATION": 97.344, "RA_OF_ASC_NODE": 57.0548, "ARG_OF_PERICENTER": 55.2386, "MEAN_ANOMALY": 304.9995, "EPHEMERIS_TYPE": 0, "CLASSIFICATION_TYPE": "U", "NORAD_CAT_ID": 43833, "ELEMENT_SET_NO": 999, "REV_AT_EPOCH": 38848, "BSTAR": 0.00016709132, "MEAN_MOTION_DOT": 4.244e-05, "MEAN_MOTION_DDOT": 0}, "tle": {"line1": "1 43833U 18102C   25354.25642191  .00004244  00000+0  16709-3 0  9991", "line2": "2 43833  97.3440  57.0548 0012150  55.2386 304.9995 15.26091839388481"}}, "geometry": {"type": "Point", "coordinates": [-116.54239304060042, 39.28148202200856]}}, {"type": "Feature", "properties": {"norad_id": 44622, "name": "GAOFEN-10R", "group": "resource", "lat": -58.97304674921117, "lon": -44.28141110342169, "alt_km": 626.584567693305, "timestamp": "2025-12-20T14:38:01.616240+00:00", "meta": {"OBJECT_NAME": "GAOFEN-10R", "OBJECT_ID": "2019-066A", "EPOCH": "2025-12-20T06:48:20.733984", "MEAN_MOTION": 14.82815683, "ECCENTRICITY": 0.00073726, "INCLINATION": 98.0288, "RA_OF_ASC_NODE": 301.8195, "ARG_OF_PERICENTER": 20.1557, "MEAN_ANOMALY": 339.9946, "EPHEMERIS_TYPE": 0, "CLASSIFICATION_TYPE": "U", "NORAD_CAT_ID": 44622, "ELEMENT_SET_NO": 999, "REV_AT_EPOCH": 33586, "BSTAR": 0.00014527873, "MEAN_MOTION_DOT": 1.121e-05, "MEAN_MOTION_DDOT": 0}, "tle": {"line1": "1 44622U 19066A   25354.28357331  .00001121  00000+0  14528-3 0  9998", "line2": "2 44622  98.0288 301.8195 0007372  20.1557 339.9946 14.82815683335865"}}, "geometry": {"type": "Point", "coordinates": [-44.28141110342169, -58.97304674921117]}}]}